{
  "type": "FeatureCollection",
  "name": "potomac_stations",
  "crs": {
    "type": "name",
    "properties": {
      "name": "EPSG:4326"
    }
  },
  "features": [
    {
      "type": "Feature",
      "properties": {
        "id": "01636500",
        "name": "Shenandoah River at Millville, WV",
        "name_zh": "Shenandoah 河 Millville 站",
        "role": "支流控制站",
        "agency": "USGS",
        "param": "日均流量",
        "dist_to_river_km": 0.28
      },
      "geometry": {
        "type": "Point",
        "coordinates": [
          -77.7867,
          39.2886
        ]
      }
    },
    {
      "type": "Feature",
      "properties": {
        "id": "01638480",
        "name": "Potomac River at Harpers Ferry, WV",
        "name_zh": "Potomac 河 Harpers Ferry 站",
        "role": "中游控制站",
        "agency": "USGS",
        "param": "日均流量",
        "dist_to_river_km": 0.32
      },
      "geometry": {
        "type": "Point",
        "coordinates": [
          -77.7283,
          39.3226
        ]
      }
    },
    {
      "type": "Feature",
      "properties": {
        "id": "01646500",
        "name": "Potomac River at Washington, DC",
        "name_zh": "Potomac 河 Washington 出口站",
        "role": "下游出口控制站",
        "agency": "USGS",
        "param": "日均流量",
        "dist_to_river_km": 0.17
      },
      "geometry": {
        "type": "Point",
        "coordinates": [
          -77.1278,
          38.9498
        ]
      }
    },
    {
      "type": "Feature",
      "properties": {
        "id": "01638500",
        "name": "Potomac River at Point of Rocks, MD",
        "name_zh": "Potomac 河 Point of Rocks 站",
        "role": "中游站",
        "agency": "USGS",
        "param": "日均流量",
        "dist_to_river_km": 3.47
      },
      "geometry": {
        "type": "Point",
        "coordinates": [
          -77.539,
          39.274
        ]
      }
    },
    {
      "type": "Feature",
      "properties": {
        "id": "01643000",
        "name": "Monocacy River at Bridgeport, MD",
        "name_zh": "Monocacy 河 Bridgeport 站",
        "role": "支流站",
        "agency": "USGS",
        "param": "日均流量",
        "dist_to_river_km": 8.87
      },
      "geometry": {
        "type": "Point",
        "coordinates": [
          -77.28,
          39.39
        ]
      }
    }
  ]
}