{
  "type": "FeatureCollection",
  "name": "hanjiang-schematic_reservoirs",
  "crs": {
    "type": "name",
    "properties": {
      "name": "EPSG:4326"
    }
  },
  "features": [
    {
      "type": "Feature",
      "properties": {
        "id": "RSV-AK",
        "name": "安康水库（示意点）",
        "name_en": "Ankang Reservoir (schematic point)",
        "type": "reservoir",
        "schematic": true,
        "purpose": "发电 / 防洪（示意）",
        "capacity_e6m3": 2580,
        "note": "位置与库容均为示意量级",
        "source": "public name + schematic magnitude"
      },
      "geometry": {
        "type": "Point",
        "coordinates": [
          108.95,
          32.72
        ]
      }
    },
    {
      "type": "Feature",
      "properties": {
        "id": "RSV-DJK",
        "name": "丹江口水库（示意点）",
        "name_en": "Danjiangkou Reservoir (schematic point)",
        "type": "reservoir",
        "schematic": true,
        "purpose": "供水 / 防洪（示意）",
        "capacity_e6m3": 29000,
        "note": "位置与库容均为示意量级；非工程设计值",
        "source": "public name + schematic magnitude"
      },
      "geometry": {
        "type": "Point",
        "coordinates": [
          111.48,
          32.72
        ]
      }
    }
  ]
}