{
  "type": "FeatureCollection",
  "name": "hanjiang-schematic_slope_hint",
  "crs": {
    "type": "name",
    "properties": {
      "name": "EPSG:4326"
    }
  },
  "features": [
    {
      "type": "Feature",
      "properties": {
        "id": "SLP-00-00",
        "name": "中坡示意",
        "name_en": "中坡示意",
        "type": "slope_cell",
        "schematic": true,
        "slope_class": 2,
        "slope_label": "中坡示意",
        "elev_proxy_m": 406.0,
        "note": "合成 DEM 派生示意，非实测坡度",
        "source": "synthetic DEM proxy (schematic)"
      },
      "geometry": {
        "type": "Polygon",
        "coordinates": [
          [
            [
              106.2,
              32.2
            ],
            [
              107.13333333333334,
              32.2
            ],
            [
              107.13333333333334,
              32.53333333333334
            ],
            [
              106.2,
              32.53333333333334
            ],
            [
              106.2,
              32.2
            ]
          ]
        ]
      }
    },
    {
      "type": "Feature",
      "properties": {
        "id": "SLP-00-01",
        "name": "中坡示意",
        "name_en": "中坡示意",
        "type": "slope_cell",
        "schematic": true,
        "slope_class": 2,
        "slope_label": "中坡示意",
        "elev_proxy_m": 366.0,
        "note": "合成 DEM 派生示意，非实测坡度",
        "source": "synthetic DEM proxy (schematic)"
      },
      "geometry": {
        "type": "Polygon",
        "coordinates": [
          [
            [
              106.2,
              32.53333333333334
            ],
            [
              107.13333333333334,
              32.53333333333334
            ],
            [
              107.13333333333334,
              32.86666666666667
            ],
            [
              106.2,
              32.86666666666667
            ],
            [
              106.2,
              32.53333333333334
            ]
          ]
        ]
      }
    },
    {
      "type": "Feature",
      "properties": {
        "id": "SLP-00-02",
        "name": "缓坡示意",
        "name_en": "缓坡示意",
        "type": "slope_cell",
        "schematic": true,
        "slope_class": 1,
        "slope_label": "缓坡示意",
        "elev_proxy_m": 326.0,
        "note": "合成 DEM 派生示意，非实测坡度",
        "source": "synthetic DEM proxy (schematic)"
      },
      "geometry": {
        "type": "Polygon",
        "coordinates": [
          [
            [
              106.2,
              32.86666666666667
            ],
            [
              107.13333333333334,
              32.86666666666667
            ],
            [
              107.13333333333334,
              33.2
            ],
            [
              106.2,
              33.2
            ],
            [
              106.2,
              32.86666666666667
            ]
          ]
        ]
      }
    },
    {
      "type": "Feature",
      "properties": {
        "id": "SLP-00-03",
        "name": "缓坡示意",
        "name_en": "缓坡示意",
        "type": "slope_cell",
        "schematic": true,
        "slope_class": 1,
        "slope_label": "缓坡示意",
        "elev_proxy_m": 286.0,
        "note": "合成 DEM 派生示意，非实测坡度",
        "source": "synthetic DEM proxy (schematic)"
      },
      "geometry": {
        "type": "Polygon",
        "coordinates": [
          [
            [
              106.2,
              33.2
            ],
            [
              107.13333333333334,
              33.2
            ],
            [
              107.13333333333334,
              33.53333333333334
            ],
            [
              106.2,
              33.53333333333334
            ],
            [
              106.2,
              33.2
            ]
          ]
        ]
      }
    },
    {
      "type": "Feature",
      "properties": {
        "id": "SLP-00-04",
        "name": "中坡示意",
        "name_en": "中坡示意",
        "type": "slope_cell",
        "schematic": true,
        "slope_class": 2,
        "slope_label": "中坡示意",
        "elev_proxy_m": 246.0,
        "note": "合成 DEM 派生示意，非实测坡度",
        "source": "synthetic DEM proxy (schematic)"
      },
      "geometry": {
        "type": "Polygon",
        "coordinates": [
          [
            [
              106.2,
              33.53333333333334
            ],
            [
              107.13333333333334,
              33.53333333333334
            ],
            [
              107.13333333333334,
              33.86666666666667
            ],
            [
              106.2,
              33.86666666666667
            ],
            [
              106.2,
              33.53333333333334
            ]
          ]
        ]
      }
    },
    {
      "type": "Feature",
      "properties": {
        "id": "SLP-00-05",
        "name": "中坡示意",
        "name_en": "中坡示意",
        "type": "slope_cell",
        "schematic": true,
        "slope_class": 2,
        "slope_label": "中坡示意",
        "elev_proxy_m": 206.0,
        "note": "合成 DEM 派生示意，非实测坡度",
        "source": "synthetic DEM proxy (schematic)"
      },
      "geometry": {
        "type": "Polygon",
        "coordinates": [
          [
            [
              106.2,
              33.86666666666667
            ],
            [
              107.13333333333334,
              33.86666666666667
            ],
            [
              107.13333333333334,
              34.2
            ],
            [
              106.2,
              34.2
            ],
            [
              106.2,
              33.86666666666667
            ]
          ]
        ]
      }
    },
    {
      "type": "Feature",
      "properties": {
        "id": "SLP-01-00",
        "name": "陡坡示意",
        "name_en": "陡坡示意",
        "type": "slope_cell",
        "schematic": true,
        "slope_class": 3,
        "slope_label": "陡坡示意",
        "elev_proxy_m": 378.0,
        "note": "合成 DEM 派生示意，非实测坡度",
        "source": "synthetic DEM proxy (schematic)"
      },
      "geometry": {
        "type": "Polygon",
        "coordinates": [
          [
            [
              107.13333333333334,
              32.2
            ],
            [
              108.06666666666666,
              32.2
            ],
            [
              108.06666666666666,
              32.53333333333334
            ],
            [
              107.13333333333334,
              32.53333333333334
            ],
            [
              107.13333333333334,
              32.2
            ]
          ]
        ]
      }
    },
    {
      "type": "Feature",
      "properties": {
        "id": "SLP-01-01",
        "name": "中坡示意",
        "name_en": "中坡示意",
        "type": "slope_cell",
        "schematic": true,
        "slope_class": 2,
        "slope_label": "中坡示意",
        "elev_proxy_m": 338.0,
        "note": "合成 DEM 派生示意，非实测坡度",
        "source": "synthetic DEM proxy (schematic)"
      },
      "geometry": {
        "type": "Polygon",
        "coordinates": [
          [
            [
              107.13333333333334,
              32.53333333333334
            ],
            [
              108.06666666666666,
              32.53333333333334
            ],
            [
              108.06666666666666,
              32.86666666666667
            ],
            [
              107.13333333333334,
              32.86666666666667
            ],
            [
              107.13333333333334,
              32.53333333333334
            ]
          ]
        ]
      }
    },
    {
      "type": "Feature",
      "properties": {
        "id": "SLP-01-02",
        "name": "中坡示意",
        "name_en": "中坡示意",
        "type": "slope_cell",
        "schematic": true,
        "slope_class": 2,
        "slope_label": "中坡示意",
        "elev_proxy_m": 298.0,
        "note": "合成 DEM 派生示意，非实测坡度",
        "source": "synthetic DEM proxy (schematic)"
      },
      "geometry": {
        "type": "Polygon",
        "coordinates": [
          [
            [
              107.13333333333334,
              32.86666666666667
            ],
            [
              108.06666666666666,
              32.86666666666667
            ],
            [
              108.06666666666666,
              33.2
            ],
            [
              107.13333333333334,
              33.2
            ],
            [
              107.13333333333334,
              32.86666666666667
            ]
          ]
        ]
      }
    },
    {
      "type": "Feature",
      "properties": {
        "id": "SLP-01-03",
        "name": "中坡示意",
        "name_en": "中坡示意",
        "type": "slope_cell",
        "schematic": true,
        "slope_class": 2,
        "slope_label": "中坡示意",
        "elev_proxy_m": 258.0,
        "note": "合成 DEM 派生示意，非实测坡度",
        "source": "synthetic DEM proxy (schematic)"
      },
      "geometry": {
        "type": "Polygon",
        "coordinates": [
          [
            [
              107.13333333333334,
              33.2
            ],
            [
              108.06666666666666,
              33.2
            ],
            [
              108.06666666666666,
              33.53333333333334
            ],
            [
              107.13333333333334,
              33.53333333333334
            ],
            [
              107.13333333333334,
              33.2
            ]
          ]
        ]
      }
    },
    {
      "type": "Feature",
      "properties": {
        "id": "SLP-01-04",
        "name": "中坡示意",
        "name_en": "中坡示意",
        "type": "slope_cell",
        "schematic": true,
        "slope_class": 2,
        "slope_label": "中坡示意",
        "elev_proxy_m": 218.0,
        "note": "合成 DEM 派生示意，非实测坡度",
        "source": "synthetic DEM proxy (schematic)"
      },
      "geometry": {
        "type": "Polygon",
        "coordinates": [
          [
            [
              107.13333333333334,
              33.53333333333334
            ],
            [
              108.06666666666666,
              33.53333333333334
            ],
            [
              108.06666666666666,
              33.86666666666667
            ],
            [
              107.13333333333334,
              33.86666666666667
            ],
            [
              107.13333333333334,
              33.53333333333334
            ]
          ]
        ]
      }
    },
    {
      "type": "Feature",
      "properties": {
        "id": "SLP-01-05",
        "name": "陡坡示意",
        "name_en": "陡坡示意",
        "type": "slope_cell",
        "schematic": true,
        "slope_class": 3,
        "slope_label": "陡坡示意",
        "elev_proxy_m": 178.0,
        "note": "合成 DEM 派生示意，非实测坡度",
        "source": "synthetic DEM proxy (schematic)"
      },
      "geometry": {
        "type": "Polygon",
        "coordinates": [
          [
            [
              107.13333333333334,
              33.86666666666667
            ],
            [
              108.06666666666666,
              33.86666666666667
            ],
            [
              108.06666666666666,
              34.2
            ],
            [
              107.13333333333334,
              34.2
            ],
            [
              107.13333333333334,
              33.86666666666667
            ]
          ]
        ]
      }
    },
    {
      "type": "Feature",
      "properties": {
        "id": "SLP-02-00",
        "name": "陡坡示意",
        "name_en": "陡坡示意",
        "type": "slope_cell",
        "schematic": true,
        "slope_class": 3,
        "slope_label": "陡坡示意",
        "elev_proxy_m": 350.0,
        "note": "合成 DEM 派生示意，非实测坡度",
        "source": "synthetic DEM proxy (schematic)"
      },
      "geometry": {
        "type": "Polygon",
        "coordinates": [
          [
            [
              108.06666666666666,
              32.2
            ],
            [
              109.0,
              32.2
            ],
            [
              109.0,
              32.53333333333334
            ],
            [
              108.06666666666666,
              32.53333333333334
            ],
            [
              108.06666666666666,
              32.2
            ]
          ]
        ]
      }
    },
    {
      "type": "Feature",
      "properties": {
        "id": "SLP-02-01",
        "name": "陡坡示意",
        "name_en": "陡坡示意",
        "type": "slope_cell",
        "schematic": true,
        "slope_class": 3,
        "slope_label": "陡坡示意",
        "elev_proxy_m": 310.0,
        "note": "合成 DEM 派生示意，非实测坡度",
        "source": "synthetic DEM proxy (schematic)"
      },
      "geometry": {
        "type": "Polygon",
        "coordinates": [
          [
            [
              108.06666666666666,
              32.53333333333334
            ],
            [
              109.0,
              32.53333333333334
            ],
            [
              109.0,
              32.86666666666667
            ],
            [
              108.06666666666666,
              32.86666666666667
            ],
            [
              108.06666666666666,
              32.53333333333334
            ]
          ]
        ]
      }
    },
    {
      "type": "Feature",
      "properties": {
        "id": "SLP-02-02",
        "name": "中坡示意",
        "name_en": "中坡示意",
        "type": "slope_cell",
        "schematic": true,
        "slope_class": 2,
        "slope_label": "中坡示意",
        "elev_proxy_m": 270.0,
        "note": "合成 DEM 派生示意，非实测坡度",
        "source": "synthetic DEM proxy (schematic)"
      },
      "geometry": {
        "type": "Polygon",
        "coordinates": [
          [
            [
              108.06666666666666,
              32.86666666666667
            ],
            [
              109.0,
              32.86666666666667
            ],
            [
              109.0,
              33.2
            ],
            [
              108.06666666666666,
              33.2
            ],
            [
              108.06666666666666,
              32.86666666666667
            ]
          ]
        ]
      }
    },
    {
      "type": "Feature",
      "properties": {
        "id": "SLP-02-03",
        "name": "中坡示意",
        "name_en": "中坡示意",
        "type": "slope_cell",
        "schematic": true,
        "slope_class": 2,
        "slope_label": "中坡示意",
        "elev_proxy_m": 230.0,
        "note": "合成 DEM 派生示意，非实测坡度",
        "source": "synthetic DEM proxy (schematic)"
      },
      "geometry": {
        "type": "Polygon",
        "coordinates": [
          [
            [
              108.06666666666666,
              33.2
            ],
            [
              109.0,
              33.2
            ],
            [
              109.0,
              33.53333333333334
            ],
            [
              108.06666666666666,
              33.53333333333334
            ],
            [
              108.06666666666666,
              33.2
            ]
          ]
        ]
      }
    },
    {
      "type": "Feature",
      "properties": {
        "id": "SLP-02-04",
        "name": "陡坡示意",
        "name_en": "陡坡示意",
        "type": "slope_cell",
        "schematic": true,
        "slope_class": 3,
        "slope_label": "陡坡示意",
        "elev_proxy_m": 190.0,
        "note": "合成 DEM 派生示意，非实测坡度",
        "source": "synthetic DEM proxy (schematic)"
      },
      "geometry": {
        "type": "Polygon",
        "coordinates": [
          [
            [
              108.06666666666666,
              33.53333333333334
            ],
            [
              109.0,
              33.53333333333334
            ],
            [
              109.0,
              33.86666666666667
            ],
            [
              108.06666666666666,
              33.86666666666667
            ],
            [
              108.06666666666666,
              33.53333333333334
            ]
          ]
        ]
      }
    },
    {
      "type": "Feature",
      "properties": {
        "id": "SLP-02-05",
        "name": "陡坡示意",
        "name_en": "陡坡示意",
        "type": "slope_cell",
        "schematic": true,
        "slope_class": 3,
        "slope_label": "陡坡示意",
        "elev_proxy_m": 150.0,
        "note": "合成 DEM 派生示意，非实测坡度",
        "source": "synthetic DEM proxy (schematic)"
      },
      "geometry": {
        "type": "Polygon",
        "coordinates": [
          [
            [
              108.06666666666666,
              33.86666666666667
            ],
            [
              109.0,
              33.86666666666667
            ],
            [
              109.0,
              34.2
            ],
            [
              108.06666666666666,
              34.2
            ],
            [
              108.06666666666666,
              33.86666666666667
            ]
          ]
        ]
      }
    },
    {
      "type": "Feature",
      "properties": {
        "id": "SLP-03-00",
        "name": "陡坡示意",
        "name_en": "陡坡示意",
        "type": "slope_cell",
        "schematic": true,
        "slope_class": 3,
        "slope_label": "陡坡示意",
        "elev_proxy_m": 322.0,
        "note": "合成 DEM 派生示意，非实测坡度",
        "source": "synthetic DEM proxy (schematic)"
      },
      "geometry": {
        "type": "Polygon",
        "coordinates": [
          [
            [
              109.0,
              32.2
            ],
            [
              109.93333333333334,
              32.2
            ],
            [
              109.93333333333334,
              32.53333333333334
            ],
            [
              109.0,
              32.53333333333334
            ],
            [
              109.0,
              32.2
            ]
          ]
        ]
      }
    },
    {
      "type": "Feature",
      "properties": {
        "id": "SLP-03-01",
        "name": "陡坡示意",
        "name_en": "陡坡示意",
        "type": "slope_cell",
        "schematic": true,
        "slope_class": 3,
        "slope_label": "陡坡示意",
        "elev_proxy_m": 282.0,
        "note": "合成 DEM 派生示意，非实测坡度",
        "source": "synthetic DEM proxy (schematic)"
      },
      "geometry": {
        "type": "Polygon",
        "coordinates": [
          [
            [
              109.0,
              32.53333333333334
            ],
            [
              109.93333333333334,
              32.53333333333334
            ],
            [
              109.93333333333334,
              32.86666666666667
            ],
            [
              109.0,
              32.86666666666667
            ],
            [
              109.0,
              32.53333333333334
            ]
          ]
        ]
      }
    },
    {
      "type": "Feature",
      "properties": {
        "id": "SLP-03-02",
        "name": "中坡示意",
        "name_en": "中坡示意",
        "type": "slope_cell",
        "schematic": true,
        "slope_class": 2,
        "slope_label": "中坡示意",
        "elev_proxy_m": 242.0,
        "note": "合成 DEM 派生示意，非实测坡度",
        "source": "synthetic DEM proxy (schematic)"
      },
      "geometry": {
        "type": "Polygon",
        "coordinates": [
          [
            [
              109.0,
              32.86666666666667
            ],
            [
              109.93333333333334,
              32.86666666666667
            ],
            [
              109.93333333333334,
              33.2
            ],
            [
              109.0,
              33.2
            ],
            [
              109.0,
              32.86666666666667
            ]
          ]
        ]
      }
    },
    {
      "type": "Feature",
      "properties": {
        "id": "SLP-03-03",
        "name": "中坡示意",
        "name_en": "中坡示意",
        "type": "slope_cell",
        "schematic": true,
        "slope_class": 2,
        "slope_label": "中坡示意",
        "elev_proxy_m": 202.0,
        "note": "合成 DEM 派生示意，非实测坡度",
        "source": "synthetic DEM proxy (schematic)"
      },
      "geometry": {
        "type": "Polygon",
        "coordinates": [
          [
            [
              109.0,
              33.2
            ],
            [
              109.93333333333334,
              33.2
            ],
            [
              109.93333333333334,
              33.53333333333334
            ],
            [
              109.0,
              33.53333333333334
            ],
            [
              109.0,
              33.2
            ]
          ]
        ]
      }
    },
    {
      "type": "Feature",
      "properties": {
        "id": "SLP-03-04",
        "name": "陡坡示意",
        "name_en": "陡坡示意",
        "type": "slope_cell",
        "schematic": true,
        "slope_class": 3,
        "slope_label": "陡坡示意",
        "elev_proxy_m": 162.0,
        "note": "合成 DEM 派生示意，非实测坡度",
        "source": "synthetic DEM proxy (schematic)"
      },
      "geometry": {
        "type": "Polygon",
        "coordinates": [
          [
            [
              109.0,
              33.53333333333334
            ],
            [
              109.93333333333334,
              33.53333333333334
            ],
            [
              109.93333333333334,
              33.86666666666667
            ],
            [
              109.0,
              33.86666666666667
            ],
            [
              109.0,
              33.53333333333334
            ]
          ]
        ]
      }
    },
    {
      "type": "Feature",
      "properties": {
        "id": "SLP-03-05",
        "name": "陡坡示意",
        "name_en": "陡坡示意",
        "type": "slope_cell",
        "schematic": true,
        "slope_class": 3,
        "slope_label": "陡坡示意",
        "elev_proxy_m": 122.0,
        "note": "合成 DEM 派生示意，非实测坡度",
        "source": "synthetic DEM proxy (schematic)"
      },
      "geometry": {
        "type": "Polygon",
        "coordinates": [
          [
            [
              109.0,
              33.86666666666667
            ],
            [
              109.93333333333334,
              33.86666666666667
            ],
            [
              109.93333333333334,
              34.2
            ],
            [
              109.0,
              34.2
            ],
            [
              109.0,
              33.86666666666667
            ]
          ]
        ]
      }
    },
    {
      "type": "Feature",
      "properties": {
        "id": "SLP-04-00",
        "name": "陡坡示意",
        "name_en": "陡坡示意",
        "type": "slope_cell",
        "schematic": true,
        "slope_class": 3,
        "slope_label": "陡坡示意",
        "elev_proxy_m": 294.0,
        "note": "合成 DEM 派生示意，非实测坡度",
        "source": "synthetic DEM proxy (schematic)"
      },
      "geometry": {
        "type": "Polygon",
        "coordinates": [
          [
            [
              109.93333333333334,
              32.2
            ],
            [
              110.86666666666666,
              32.2
            ],
            [
              110.86666666666666,
              32.53333333333334
            ],
            [
              109.93333333333334,
              32.53333333333334
            ],
            [
              109.93333333333334,
              32.2
            ]
          ]
        ]
      }
    },
    {
      "type": "Feature",
      "properties": {
        "id": "SLP-04-01",
        "name": "陡坡示意",
        "name_en": "陡坡示意",
        "type": "slope_cell",
        "schematic": true,
        "slope_class": 3,
        "slope_label": "陡坡示意",
        "elev_proxy_m": 254.0,
        "note": "合成 DEM 派生示意，非实测坡度",
        "source": "synthetic DEM proxy (schematic)"
      },
      "geometry": {
        "type": "Polygon",
        "coordinates": [
          [
            [
              109.93333333333334,
              32.53333333333334
            ],
            [
              110.86666666666666,
              32.53333333333334
            ],
            [
              110.86666666666666,
              32.86666666666667
            ],
            [
              109.93333333333334,
              32.86666666666667
            ],
            [
              109.93333333333334,
              32.53333333333334
            ]
          ]
        ]
      }
    },
    {
      "type": "Feature",
      "properties": {
        "id": "SLP-04-02",
        "name": "陡坡示意",
        "name_en": "陡坡示意",
        "type": "slope_cell",
        "schematic": true,
        "slope_class": 3,
        "slope_label": "陡坡示意",
        "elev_proxy_m": 214.0,
        "note": "合成 DEM 派生示意，非实测坡度",
        "source": "synthetic DEM proxy (schematic)"
      },
      "geometry": {
        "type": "Polygon",
        "coordinates": [
          [
            [
              109.93333333333334,
              32.86666666666667
            ],
            [
              110.86666666666666,
              32.86666666666667
            ],
            [
              110.86666666666666,
              33.2
            ],
            [
              109.93333333333334,
              33.2
            ],
            [
              109.93333333333334,
              32.86666666666667
            ]
          ]
        ]
      }
    },
    {
      "type": "Feature",
      "properties": {
        "id": "SLP-04-03",
        "name": "陡坡示意",
        "name_en": "陡坡示意",
        "type": "slope_cell",
        "schematic": true,
        "slope_class": 3,
        "slope_label": "陡坡示意",
        "elev_proxy_m": 174.0,
        "note": "合成 DEM 派生示意，非实测坡度",
        "source": "synthetic DEM proxy (schematic)"
      },
      "geometry": {
        "type": "Polygon",
        "coordinates": [
          [
            [
              109.93333333333334,
              33.2
            ],
            [
              110.86666666666666,
              33.2
            ],
            [
              110.86666666666666,
              33.53333333333334
            ],
            [
              109.93333333333334,
              33.53333333333334
            ],
            [
              109.93333333333334,
              33.2
            ]
          ]
        ]
      }
    },
    {
      "type": "Feature",
      "properties": {
        "id": "SLP-04-04",
        "name": "陡坡示意",
        "name_en": "陡坡示意",
        "type": "slope_cell",
        "schematic": true,
        "slope_class": 3,
        "slope_label": "陡坡示意",
        "elev_proxy_m": 134.0,
        "note": "合成 DEM 派生示意，非实测坡度",
        "source": "synthetic DEM proxy (schematic)"
      },
      "geometry": {
        "type": "Polygon",
        "coordinates": [
          [
            [
              109.93333333333334,
              33.53333333333334
            ],
            [
              110.86666666666666,
              33.53333333333334
            ],
            [
              110.86666666666666,
              33.86666666666667
            ],
            [
              109.93333333333334,
              33.86666666666667
            ],
            [
              109.93333333333334,
              33.53333333333334
            ]
          ]
        ]
      }
    },
    {
      "type": "Feature",
      "properties": {
        "id": "SLP-04-05",
        "name": "陡坡示意",
        "name_en": "陡坡示意",
        "type": "slope_cell",
        "schematic": true,
        "slope_class": 3,
        "slope_label": "陡坡示意",
        "elev_proxy_m": 94.0,
        "note": "合成 DEM 派生示意，非实测坡度",
        "source": "synthetic DEM proxy (schematic)"
      },
      "geometry": {
        "type": "Polygon",
        "coordinates": [
          [
            [
              109.93333333333334,
              33.86666666666667
            ],
            [
              110.86666666666666,
              33.86666666666667
            ],
            [
              110.86666666666666,
              34.2
            ],
            [
              109.93333333333334,
              34.2
            ],
            [
              109.93333333333334,
              33.86666666666667
            ]
          ]
        ]
      }
    },
    {
      "type": "Feature",
      "properties": {
        "id": "SLP-05-00",
        "name": "陡坡示意",
        "name_en": "陡坡示意",
        "type": "slope_cell",
        "schematic": true,
        "slope_class": 3,
        "slope_label": "陡坡示意",
        "elev_proxy_m": 266.0,
        "note": "合成 DEM 派生示意，非实测坡度",
        "source": "synthetic DEM proxy (schematic)"
      },
      "geometry": {
        "type": "Polygon",
        "coordinates": [
          [
            [
              110.86666666666666,
              32.2
            ],
            [
              111.8,
              32.2
            ],
            [
              111.8,
              32.53333333333334
            ],
            [
              110.86666666666666,
              32.53333333333334
            ],
            [
              110.86666666666666,
              32.2
            ]
          ]
        ]
      }
    },
    {
      "type": "Feature",
      "properties": {
        "id": "SLP-05-01",
        "name": "陡坡示意",
        "name_en": "陡坡示意",
        "type": "slope_cell",
        "schematic": true,
        "slope_class": 3,
        "slope_label": "陡坡示意",
        "elev_proxy_m": 226.0,
        "note": "合成 DEM 派生示意，非实测坡度",
        "source": "synthetic DEM proxy (schematic)"
      },
      "geometry": {
        "type": "Polygon",
        "coordinates": [
          [
            [
              110.86666666666666,
              32.53333333333334
            ],
            [
              111.8,
              32.53333333333334
            ],
            [
              111.8,
              32.86666666666667
            ],
            [
              110.86666666666666,
              32.86666666666667
            ],
            [
              110.86666666666666,
              32.53333333333334
            ]
          ]
        ]
      }
    },
    {
      "type": "Feature",
      "properties": {
        "id": "SLP-05-02",
        "name": "陡坡示意",
        "name_en": "陡坡示意",
        "type": "slope_cell",
        "schematic": true,
        "slope_class": 3,
        "slope_label": "陡坡示意",
        "elev_proxy_m": 186.0,
        "note": "合成 DEM 派生示意，非实测坡度",
        "source": "synthetic DEM proxy (schematic)"
      },
      "geometry": {
        "type": "Polygon",
        "coordinates": [
          [
            [
              110.86666666666666,
              32.86666666666667
            ],
            [
              111.8,
              32.86666666666667
            ],
            [
              111.8,
              33.2
            ],
            [
              110.86666666666666,
              33.2
            ],
            [
              110.86666666666666,
              32.86666666666667
            ]
          ]
        ]
      }
    },
    {
      "type": "Feature",
      "properties": {
        "id": "SLP-05-03",
        "name": "陡坡示意",
        "name_en": "陡坡示意",
        "type": "slope_cell",
        "schematic": true,
        "slope_class": 3,
        "slope_label": "陡坡示意",
        "elev_proxy_m": 146.0,
        "note": "合成 DEM 派生示意，非实测坡度",
        "source": "synthetic DEM proxy (schematic)"
      },
      "geometry": {
        "type": "Polygon",
        "coordinates": [
          [
            [
              110.86666666666666,
              33.2
            ],
            [
              111.8,
              33.2
            ],
            [
              111.8,
              33.53333333333334
            ],
            [
              110.86666666666666,
              33.53333333333334
            ],
            [
              110.86666666666666,
              33.2
            ]
          ]
        ]
      }
    },
    {
      "type": "Feature",
      "properties": {
        "id": "SLP-05-04",
        "name": "陡坡示意",
        "name_en": "陡坡示意",
        "type": "slope_cell",
        "schematic": true,
        "slope_class": 3,
        "slope_label": "陡坡示意",
        "elev_proxy_m": 106.0,
        "note": "合成 DEM 派生示意，非实测坡度",
        "source": "synthetic DEM proxy (schematic)"
      },
      "geometry": {
        "type": "Polygon",
        "coordinates": [
          [
            [
              110.86666666666666,
              33.53333333333334
            ],
            [
              111.8,
              33.53333333333334
            ],
            [
              111.8,
              33.86666666666667
            ],
            [
              110.86666666666666,
              33.86666666666667
            ],
            [
              110.86666666666666,
              33.53333333333334
            ]
          ]
        ]
      }
    },
    {
      "type": "Feature",
      "properties": {
        "id": "SLP-05-05",
        "name": "陡坡示意",
        "name_en": "陡坡示意",
        "type": "slope_cell",
        "schematic": true,
        "slope_class": 3,
        "slope_label": "陡坡示意",
        "elev_proxy_m": 66.0,
        "note": "合成 DEM 派生示意，非实测坡度",
        "source": "synthetic DEM proxy (schematic)"
      },
      "geometry": {
        "type": "Polygon",
        "coordinates": [
          [
            [
              110.86666666666666,
              33.86666666666667
            ],
            [
              111.8,
              33.86666666666667
            ],
            [
              111.8,
              34.2
            ],
            [
              110.86666666666666,
              34.2
            ],
            [
              110.86666666666666,
              33.86666666666667
            ]
          ]
        ]
      }
    }
  ]
}