{
  "type": "FeatureCollection",
  "name": "hanjiang-schematic_subbasins",
  "crs": {
    "type": "name",
    "properties": {
      "name": "EPSG:4326"
    }
  },
  "features": [
    {
      "type": "Feature",
      "properties": {
        "id": "SB-HJ-UP",
        "name": "汉源—石泉示意区",
        "name_en": "Hanyuan–Shiquan schematic zone",
        "type": "subbasin",
        "schematic": true,
        "area_km2": 28000,
        "note": "示意子区，非水利部正式分区",
        "source": "教学分区示意多边形"
      },
      "geometry": {
        "type": "Polygon",
        "coordinates": [
          [
            [
              106.2,
              33.8
            ],
            [
              107.5,
              34.2
            ],
            [
              108.3,
              33.7
            ],
            [
              107.8,
              33.0
            ],
            [
              106.8,
              33.0
            ],
            [
              106.2,
              33.4
            ],
            [
              106.2,
              33.8
            ]
          ]
        ]
      }
    },
    {
      "type": "Feature",
      "properties": {
        "id": "SB-HJ-MID",
        "name": "安康—白河示意区",
        "name_en": "Ankang–Baihe schematic zone",
        "type": "subbasin",
        "schematic": true,
        "area_km2": 32000,
        "note": "示意子区，非水利部正式分区",
        "source": "教学分区示意多边形"
      },
      "geometry": {
        "type": "Polygon",
        "coordinates": [
          [
            [
              108.0,
              33.7
            ],
            [
              109.5,
              33.8
            ],
            [
              110.2,
              33.2
            ],
            [
              109.5,
              32.6
            ],
            [
              108.2,
              32.7
            ],
            [
              107.9,
              33.2
            ],
            [
              108.0,
              33.7
            ]
          ]
        ]
      }
    },
    {
      "type": "Feature",
      "properties": {
        "id": "SB-HJ-DJK",
        "name": "丹江口以上近库示意区",
        "name_en": "Near-Danjiangkou schematic zone",
        "type": "subbasin",
        "schematic": true,
        "area_km2": 35000,
        "note": "示意子区，非水利部正式分区",
        "source": "教学分区示意多边形"
      },
      "geometry": {
        "type": "Polygon",
        "coordinates": [
          [
            [
              109.8,
              33.5
            ],
            [
              111.5,
              33.0
            ],
            [
              111.8,
              32.5
            ],
            [
              111.0,
              32.2
            ],
            [
              109.8,
              32.5
            ],
            [
              109.5,
              33.0
            ],
            [
              109.8,
              33.5
            ]
          ]
        ]
      }
    }
  ]
}