{"type":"FeatureCollection","name":"hanjiang-schematic_basin","crs":{"type":"name","properties":{"name":"EPSG:4326"}},"features":[{"type":"Feature","properties":{"id":"BASIN-HANJIANG-SCH","name":"汉江丹江口以上（示意）","name_en":"Upper Hanjiang above Danjiangkou (schematic)","type":"basin","schematic":true,"area_km2":95000,"outlet_id":"ST-DJK","note":"中国示范流域示意几何；名义面积量级约 9.5×10⁴ km²，非官方精确划界","source":"hand-digitized schematic for portfolio demo"},"geometry":{"type":"Polygon","coordinates":[[[106.2,33.8],[107.5,34.2],[109.0,34.0],[110.5,33.6],[111.5,33.0],[111.8,32.5],[111.2,32.2],[110.0,32.4],[108.5,32.6],[107.2,32.8],[106.4,33.2],[106.2,33.8]]]}}]}