{"type":"FeatureCollection","name":"hanjiang-schematic_stations","crs":{"type":"name","properties":{"name":"EPSG:4326"}},"features":[{"type":"Feature","properties":{"id":"ST-SQ","name":"石泉示意站","name_en":"Shiquan schematic gauge","type":"station","schematic":true,"role":"中游示意站","agency":"schematic","param":"流量（示意）","q":320,"stage":245.2,"warn_stage":248.0,"alert_stage":250.5,"warn_q":800,"alert_q":1400,"status":"near","dist_to_river_km":11.81,"series":"series/ST-SQ.json","note":"虚构示意站点；水位阈值为示意","source":"portfolio schematic only"},"geometry":{"type":"Point","coordinates":[108.25,33.05]}},{"type":"Feature","properties":{"id":"ST-AK","name":"安康示意站","name_en":"Ankang schematic gauge","type":"station","schematic":true,"role":"中游示意站","agency":"schematic","param":"流量（示意）","q":780,"stage":247.6,"warn_stage":248.0,"alert_stage":251.0,"warn_q":1500,"alert_q":2800,"status":"near","dist_to_river_km":4.79,"series":"series/ST-AK.json","note":"虚构示意站点；接近警戒（示意）","source":"portfolio schematic only"},"geometry":{"type":"Point","coordinates":[109.05,32.75]}},{"type":"Feature","properties":{"id":"ST-DJK","name":"丹江口近库示意站","name_en":"Danjiangkou schematic outlet","type":"station","schematic":true,"role":"出口示意站","agency":"schematic","param":"流量（示意）","q":1100,"stage":152.0,"warn_stage":157.0,"alert_stage":160.0,"warn_q":3000,"alert_q":5000,"status":"near","dist_to_river_km":8.58,"series":"series/ST-DJK.json","note":"虚构示意站点；水位阈值为示意","source":"portfolio schematic only"},"geometry":{"type":"Point","coordinates":[111.45,32.55]}}]}